    ArgumentOfPeriapsis: 177.46391791324
    MeanAnomaly: 45.229208624166
    TrueAnomaly: 71.061802728818
  - EpochJD: 2458224.5
    DateUTC: 2018-04-16 00:00:00
    SemiMajorAxis: 1.3249432152029
    Eccentricity: 0.25573417225371
    Inclination: 1.0774481135039
    LongitudeOfAscNode: 317.12029243053
    ArgumentOfPeriapsis: 177.46503366615
    MeanAnomaly: 45.875556110266
    TrueAnomaly: 71.897829862928
  - EpochJD: 2458225.5
    DateUTC: 2018-04-17 00:00:00
    SemiMajorAxis: 1.3249417852727
    Eccentricity: 0.25573204986437
    Inclination: 1.0774418067942
    LongitudeOfAscNode: 317.11938205167
    ArgumentOfPeriapsis: 177.46611638965
    MeanAnomaly: 46.521884136407
    TrueAnomaly: 72.728387465217
  - EpochJD: 2458226.5
    DateUTC: 2018-04-18 00:00:00
    SemiMajorAxis: 1.3249405955662
    Eccentricity: 0.25573007118224
    Inclination: 1.0774360508592
    LongitudeOfAscNode: 317.11851259872
    ArgumentOfPeriapsis: 177.46716655576
    MeanAnomaly: 47.168193878686
    TrueAnomaly: 73.553505096585
  - EpochJD: 2458227.5
    DateUTC: 2018-04-19 00:00:00
    SemiMajorAxis: 1.3249396269912
    Eccentricity: 0.25572822721531
    Inclination: 1.0774308064489
    LongitudeOfAscNode: 317.11768251218
    ArgumentOfPeriapsis: 177.46818467409
    MeanAnomaly: 47.814486484025
    TrueAnomaly: 74.373213574373
  - EpochJD: 2458228.5
    DateUTC: 2018-04-20 00:00:00
    SemiMajorAxis: 1.3249388615199
    Eccentricity: 0.25572650949727
    Inclination: 1.0774260366086
    LongitudeOfAscNode: 317.11689024688
    ArgumentOfPeriapsis: 177.46917128936
    MeanAnomaly: 48.46076306791
    TrueAnomaly: 75.187544899827
  - EpochJD: 2458229.5
    DateUTC: 2018-04-21 00:00:00
    SemiMajorAxis: 1.3249382821512
    Eccentricity: 0.25572491006238
    Inclination: 1.0774217065903
    LongitudeOfAscNode: 317.11613427555
    ArgumentOfPeriapsis: 177.47012697834
    MeanAnomaly: 49.107024712357
    TrueAnomaly: 75.996532187759
  - EpochJD: 2458230.5
    DateUTC: 2018-04-22 00:00:00
    SemiMajorAxis: 1.3249378728735
    Eccentricity: 0.25572342142148
    Inclination: 1.0774177837659
    LongitudeOfAscNode: 317.11541309231
    ArgumentOfPeriapsis: 177.47105234658
    MeanAnomaly: 49.753272464155
    TrueAnomaly: 76.800209598443
  - EpochJD: 2458231.5
    DateUTC: 2018-04-23 00:00:00
    SemiMajorAxis: 1.3249376186278
    Eccentricity: 0.25572203653942
    Inclination: 1.0774142375429
    LongitudeOfAscNode: 317.11472521642
    ArgumentOfPeriapsis: 177.4719480244
    MeanAnomaly: 50.399507333521
    TrueAnomaly: 77.598612271924
  - EpochJD: 2458232.5
    DateUTC: 2018-04-24 00:00:00
    SemiMajorAxis: 1.3249375052693
    Eccentricity: 0.25572074881295
    Inclination: 1.0774110392802
    LongitudeOfAscNode: 317.11406919562
    ArgumentOfPeriapsis: 177.47281466297
    MeanAnomaly: 51.045730293124
    TrueAnomaly: 78.391776264616
  - EpochJD: 2458233.5
    DateUTC: 2018-04-25 00:00:00
    SemiMajorAxis: 1.3249375195289
    Eccentricity: 0.25571955204924
    Inclination: 1.0774081622034
    LongitudeOfAscNode: 317.11344360923
    ArgumentOfPeriapsis: 177.47365293027
    MeanAnomaly: 51.691942277498
    TrueAnomaly: 79.179738488198
  - EpochJD: 2458234.5
    DateUTC: 2018-04-26 00:00:00
    SemiMajorAxis: 1.324937648975
    Eccentricity: 0.25571844044492
    Inclination: 1.0774055813195
    LongitudeOfAscNode: 317.11284707076
    ArgumentOfPeriapsis: 177.47446350729
    MeanAnomaly: 52.338144182803
    TrueAnomaly: 79.96253665075
  - EpochJD: 2458235.5
    DateUTC: 2018-04-27 00:00:00
    SemiMajorAxis: 1.3249378819737
    Eccentricity: 0.25571740856552
    Inclination: 1.0774032733321
    LongitudeOfAscNode: 317.11227823003
    ArgumentOfPeriapsis: 177.47524708457
    MeanAnomaly: 52.984336866855
    TrueAnomaly: 80.740209200017
  - EpochJD: 2458236.5
    DateUTC: 2018-04-28 00:00:00
    SemiMajorAxis: 1.3249382076512
    Eccentricity: 0.25571645132558
    Inclination: 1.0774012165566
    LongitudeOfAscNode: 317.11173577483
    ArgumentOfPeriapsis: 177.4760043591
    MeanAnomaly: 53.630521149353
    TrueAnomaly: 81.512795268719
  - EpochJD: 2458237.5
    DateUTC: 2018-04-29 00:00:00
    SemiMajorAxis: 1.3249386158564
    Eccentricity: 0.25571556396943
    Inclination: 1.0773993908362
    LongitudeOfAscNode: 317.11121843214
    ArgumentOfPeriapsis: 177.47673603151
    MeanAnomaly: 54.276697812246
    TrueAnomaly: 82.28033462184
  - EpochJD: 2458238.5
    DateUTC: 2018-04-30 00:00:00
    SemiMajorAxis: 1.3249390971247
    Eccentricity: 0.25571474205285
    Inclination: 1.0773977774602
    LongitudeOfAscNode: 317.11072496908
    ArgumentOfPeriapsis: 177.47744280369
    MeanAnomaly: 54.922867600203
    TrueAnomaly: 83.042867605863
  - EpochJD: 2458239.5
    DateUTC: 2018-05-01 00:00:00
    SemiMajorAxis: 1.3249396426437
    Eccentricity: 0.25571398142563
    Inclination: 1.0773963590844
    LongitudeOfAscNode: 317.11025419363
    ArgumentOfPeriapsis: 177.47812537644
    MeanAnomaly: 55.569031221157
    TrueAnomaly: 83.800435099903
  - EpochJD: 2458240.5
    DateUTC: 2018-05-02 00:00:00
    SemiMajorAxis: 1.3249402442189
    Eccentricity: 0.25571327821504
    Inclination: 1.077395119654
    LongitudeOfAscNode: 317.10980495518
    ArgumentOfPeriapsis: 177.47878444739
    MeanAnomaly: 56.215189346939
    TrueAnomaly: 84.55307846874
  - EpochJD: 2458241.5
    DateUTC: 2018-05-03 00:00:00
    SemiMajorAxis: 1.3249408942418
    Eccentricity: 0.25571262881011
    Inclination: 1.0773940443292
    LongitudeOfAscNode: 317.10937614501
    ArgumentOfPeriapsis: 177.47942070894
    MeanAnomaly: 56.861342614009
    TrueAnomaly: 85.300839517733
  - EpochJD: 2458242.5
    DateUTC: 2018-05-04 00:00:00
    SemiMajorAxis: 1.3249415856582
    Eccentricity: 0.25571202984687
    Inclination: 1.0773931194127
    LongitudeOfAscNode: 317.10896669654
    ArgumentOfPeriapsis: 177.48003484626
    MeanAnomaly: 57.507491624257
    TrueAnomaly: 86.043760449565
  - EpochJD: 2458243.5
    DateUTC: 2018-05-05 00:00:00
    SemiMajorAxis: 1.3249423119373
    Eccentricity: 0.25571147819416
    Inclination: 1.0773923322803
    LongitudeOfAscNode: 317.10857558552
    ArgumentOfPeriapsis: 177.48062753554
    MeanAnomaly: 58.153636945919
    TrueAnomaly: 86.78188382281
  - EpochJD: 2458244.5
    DateUTC: 2018-05-06 00:00:00
    SemiMajorAxis: 1.3249430670423
    Eccentricity: 0.25571097094021
    Inclination: 1.0773916713136
    LongitudeOfAscNode: 317.10820183003
    ArgumentOfPeriapsis: 177.48119944223
    MeanAnomaly: 58.799779114551
    TrueAnomaly: 87.515252512242
  - EpochJD: 2458245.5
    DateUTC: 2018-05-07 00:00:00
    SemiMajorAxis: 1.3249438454014
    Eccentricity: 0.25571050537985
    Inclination: 1.0773911258352
    LongitudeOfAscNode: 317.10784449032
    ArgumentOfPeriapsis: 177.48175121958
    MeanAnomaly: 59.445918634053
    TrueAnomaly: 88.243909670833
  - EpochJD: 2458246.5
    DateUTC: 2018-05-08 00:00:00
    SemiMajorAxis: 1.3249446418808
    Eccentricity: 0.25571007900233
    Inclination: 1.077390686046
    LongitudeOfAscNode: 317.10750266847
    ArgumentOfPeriapsis: 177.4822835073
    MeanAnomaly: 60.09205597772
    TrueAnomaly: 88.967898693379
  - EpochJD: 2458247.5
    DateUTC: 2018-05-09 00:00:00
    SemiMajorAxis: 1.324945451758
    Eccentricity: 0.25570968947971
    Inclination: 1.0773903429656
    LongitudeOfAscNode: 317.10717550794
    ArgumentOfPeriapsis: 177.48279693051
    MeanAnomaly: 60.738191589287
    TrueAnomaly: 89.687263181682
  - EpochJD: 2458248.5
    DateUTC: 2018-05-10 00:00:00
    SemiMajorAxis: 1.3249462706975
    Eccentricity: 0.25570933465587
    Inclination: 1.0773900883749
    LongitudeOfAscNode: 317.106862193
    ArgumentOfPeriapsis: 177.48329209883
    MeanAnomaly: 61.384325883938
    TrueAnomaly: 90.402046911229
  - EpochJD: 2458249.5
    DateUTC: 2018-05-11 00:00:00
    SemiMajorAxis: 1.3249470947274
    Eccentricity: 0.25570901253605
    Inclination: 1.077389914761
    LongitudeOfAscNode: 317.10656194805
    ArgumentOfPeriapsis: 177.48376960571
    MeanAnomaly: 62.030459249264
    TrueAnomaly: 91.112293799309
  - EpochJD: 2458250.5
    DateUTC: 2018-05-12 00:00:00
    SemiMajorAxis: 1.3249479202172
    Eccentricity: 0.25570872127688
    Inclination: 1.0773898152654
    LongitudeOfAscNode: 317.10627403687
    ArgumentOfPeriapsis: 177.48423002796
    MeanAnomaly: 62.676592046146
    TrueAnomaly: 91.818047874504
  - EpochJD: 2458251.5
    DateUTC: 2018-05-13 00:00:00
    SemiMajorAxis: 1.3249487438588
    Eccentricity: 0.25570845917701
    Inclination: 1.0773897836342
    LongitudeOfAscNode: 317.10599776194
    ArgumentOfPeriapsis: 177.4846739254
    MeanAnomaly: 63.322724609533
    TrueAnomaly: 92.519353247504
  - EpochJD: 2458252.5
    DateUTC: 2018-05-14 00:00:00
    SemiMajorAxis: 1.3249495626473
    Eccentricity: 0.25570822466807
    Inclination: 1.0773898141702
    LongitudeOfAscNode: 317.10573246362
    ArgumentOfPeriapsis: 177.48510184073
    MeanAnomaly: 63.968857249121
    TrueAnomaly: 93.216254083188
  - EpochJD: 2458253.5
    DateUTC: 2018-05-15 00:00:00
    SemiMajorAxis: 1.3249503738646
    Eccentricity: 0.25570801630611
    Inclination: 1.0773899016883
    LongitudeOfAscNode: 317.10547751949
    ArgumentOfPeriapsis: 177.48551429947
    MeanAnomaly: 64.614990249877
    TrueAnomaly: 93.908794573904
  - EpochJD: 2458254.5
    DateUTC: 2018-05-16 00:00:00
    SemiMajorAxis: 1.3249511750645
    Eccentricity: 0.25570783276323
    Inclination: 1.0773900414722
    LongitudeOfAscNode: 317.10523234375
    ArgumentOfPeriapsis: 177.48591181002
    MeanAnomaly: 65.261123872504
    TrueAnomaly: 94.597018913968
  - EpochJD: 2458255.5
    DateUTC: 2018-05-17 00:00:00
    SemiMajorAxis: 1.3249519640595
    Eccentricity: 0.25570767281962
    Inclination: 1.0773902292329
    LongitudeOfAscNode: 317.10499638663
    ArgumentOfPeriapsis: 177.48629486383
    MeanAnomaly: 65.907258353665
    TrueAnomaly: 95.280971275203
  - EpochJD: 2458256.5
    DateUTC: 2018-05-18 00:00:00
    SemiMajorAxis: 1.3249527389086
